{"type": "FeatureCollection", "features": [ {"type": "Feature", "properties": {"norad_id": 40115, "name": "WORLDVIEW-3 (WV-3)", "group": "resource", "lat": 66.83564119429901, "lon": 34.37217331177051, "alt_km": 607.7465834932564, "timestamp": "2025-12-06T20:37:55.716174+00:00", "meta": {"OBJECT_NAME": "WORLDVIEW-3 (WV-3)", "OBJECT_ID": "2014-048A", "EPOCH": "2025-12-06T15:28:35.020992", "MEAN_MOTION": 14.85488801, "ECCENTRICITY": 0.00043199, "INCLINATION": 97.8622, "RA_OF_ASC_NODE": 53.002, "ARG_OF_PERICENTER": 205.7909, "MEAN_ANOMALY": 154.3091, "EPHEMERIS_TYPE": 0, "CLASSIFICATION_TYPE": "U", "NORAD_CAT_ID": 40115, "ELEMENT_SET_NO": 999, "REV_AT_EPOCH": 61333, "BSTAR": 0.00027738589, "MEAN_MOTION_DOT": 2.341e-05, "MEAN_MOTION_DDOT": 0}, "tle": {"line1": "1 40115U 14048A   25340.64484978  .00002341  00000+0  27739-3 0  9992", "line2": "2 40115  97.8622  53.0020 0004319 205.7909 154.3091 14.85488801613332"}}, "geometry": {"type": "Point", "coordinates": [34.37217331177051, 66.83564119429901]}}, {"type": "Feature", "properties": {"norad_id": 40118, "name": "GAOFEN-2", "group": "resource", "lat": -10.972604392255349, "lon": 41.58799929465432, "alt_km": 636.3282473274894, "timestamp": "2025-12-06T20:37:55.716185+00:00", "meta": {"OBJECT_NAME": "GAOFEN-2", "OBJECT_ID": "2014-049A", "EPOCH": "2025-12-06T14:11:39.487200", "MEAN_MOTION": 14.80591858, "ECCENTRICITY": 0.0008379, "INCLINATION": 98.0394, "RA_OF_ASC_NODE": 39.749, "ARG_OF_PERICENTER": 130.6724, "MEAN_ANOMALY": 229.5218, "EPHEMERIS_TYPE": 0, "CLASSIFICATION_TYPE": "U", "NORAD_CAT_ID": 40118, "ELEMENT_SET_NO": 999, "REV_AT_EPOCH": 61073, "BSTAR": 0.00020695982, "MEAN_MOTION_DOT": 1.535e-05, "MEAN_MOTION_DDOT": 0}, "tle": {"line1": "1 40118U 14049A   25340.59142925  .00001535  00000+0  20696-3 0  9992", "line2": "2 40118  98.0394  39.7490 0008379 130.6724 229.5218 14.80591858610736"}}, "geometry": {"type": "Point", "coordinates": [41.58799929465432, -10.972604392255349]}}, {"type": "Feature", "properties": {"norad_id": 40143, "name": "YAOGAN-21", "group": "resource", "lat": 55.582919934108595, "lon": -144.97540166594834, "alt_km": 486.76917065733414, "timestamp": "2025-12-06T20:37:55.716196+00:00", "meta": {"OBJECT_NAME": "YAOGAN-21", "OBJECT_ID": "2014-053A", "EPOCH": "2025-12-06T15:21:47.618208", "MEAN_MOTION": 15.23568383, "ECCENTRICITY": 0.00101168, "INCLINATION": 97.1759, "RA_OF_ASC_NODE": 24.2184, "ARG_OF_PERICENTER": 60.5005, "MEAN_ANOMALY": 299.7241, "EPHEMERIS_TYPE": 0, "CLASSIFICATION_TYPE": "U", "NORAD_CAT_ID": 40143, "ELEMENT_SET_NO": 999, "REV_AT_EPOCH": 62561, "BSTAR": 0.00043856932, "MEAN_MOTION_DOT": 0.0001044, "MEAN_MOTION_DDOT": 0}, "tle": {"line1": "1 40143U 14053A   25340.64013447  .00010440  00000+0  43857-3 0  9996", "line2": "2 40143  97.1759  24.2184 0010116  60.5005 299.7241 15.23568383625616"}}, "geometry": {"type": "Point", "coordinates": [-144.97540166594834, 55.582919934108595]}}, {"type": "Feature", "properties": {"norad_id": 40275, "name": "YAOGAN-22", "group": "resource", "lat": 35.408616111757176, "lon": 116.44101019468278, "alt_km": 1202.3602743570746, "timestamp": "2025-12-06T20:37:55.716207+00:00", "meta": {"OBJECT_NAME": "YAOGAN-22", "OBJECT_ID": "2014-063A", "EPOCH": "2025-12-06T14:58:23.676096", "MEAN_MOTION": 13.15522495, "ECCENTRICITY": 0.00059068, "INCLINATION": 100.7418, "RA_OF_ASC_NODE": 123.9571, "ARG_OF_PERICENTER": 262.9773, "MEAN_ANOMALY": 97.0666, "EPHEMERIS_TYPE": 0, "CLASSIFICATION_TYPE": "U", "NORAD_CAT_ID": 40275, "ELEMENT_SET_NO": 999, "REV_AT_EPOCH": 53449, "BSTAR": 4.402264e-05, "MEAN_MOTION_DOT": -3e-07, "MEAN_MOTION_DDOT": 0}, "tle": {"line1": "1 40275U 14063A   25340.62388514 -.00000030  00000+0  44023-4 0  9993", "line2": "2 40275 100.7418 123.9571 0005906 262.9773  97.0666 13.15522495534491"}}, "geometry": {"type": "Point", "coordinates": [116.44101019468278, 35.408616111757176]}}, {"type": "Feature", "properties": {"norad_id": 40298, "name": "ASNARO", "group": "resource", "lat": -78.14665008702575, "lon": -161.10163122686188, "alt_km": 517.2209871629002, "timestamp": "2025-12-06T20:37:55.716218+00:00", "meta": {"OBJECT_NAME": "ASNARO", "OBJECT_ID": "2014-070A", "EPOCH": "2025-12-06T11:35:06.559584", "MEAN_MOTION": 15.19300222, "ECCENTRICITY": 0.00052999, "INCLINATION": 97.3663, "RA_OF_ASC_NODE": 56.5836, "ARG_OF_PERICENTER": 139.6242, "MEAN_ANOMALY": 220.5388, "EPHEMERIS_TYPE": 0, "CLASSIFICATION_TYPE": "U", "NORAD_CAT_ID": 40298, "ELEMENT_SET_NO": 999, "REV_AT_EPOCH": 61474, "BSTAR": 0.00087486749, "MEAN_MOTION_DOT": 0.00018437, "MEAN_MOTION_DDOT": 0}, "tle": {"line1": "1 40298U 14070A   25340.48271481  .00018437  00000+0  87487-3 0  9993", "line2": "2 40298  97.3663  56.5836 0005299 139.6242 220.5388 15.19300222614749"}}, "geometry": {"type": "Point", "coordinates": [-161.10163122686188, -78.14665008702575]}}, {"type": "Feature", "properties": {"norad_id": 40310, "name": "YAOGAN-24", "group": "resource", "lat": 64.99322798863766, "lon": 94.09273354069549, "alt_km": 635.0985948651414, "timestamp": "2025-12-06T20:37:55.716228+00:00", "meta": {"OBJECT_NAME": "YAOGAN-24", "OBJECT_ID": "2014-072A", "EPOCH": "2025-12-06T15:27:07.540128", "MEAN_MOTION": 14.76157386, "ECCENTRICITY": 0.00144411, "INCLINATION": 98.1225, "RA_OF_ASC_NODE": 111.7049, "ARG_OF_PERICENTER": 156.8874, "MEAN_ANOMALY": 203.2988, "EPHEMERIS_TYPE": 0, "CLASSIFICATION_TYPE": "U", "NORAD_CAT_ID": 40310, "ELEMENT_SET_NO": 999, "REV_AT_EPOCH": 59531, "BSTAR": 0.00028473669, "MEAN_MOTION_DOT": 1.918e-05, "MEAN_MOTION_DDOT": 0}, "tle": {"line1": "1 40310U 14072A   25340.64383727  .00001918  00000+0  28474-3 0  9992", "line2": "2 40310  98.1225 111.7049 0014441 156.8874 203.2988 14.76157386595316"}}, "geometry": {"type": "Point", "coordinates": [94.09273354069549, 64.99322798863766]}}, {"type": "Feature", "properties": {"norad_id": 40336, "name": "CBERS 4", "group": "resource", "lat": -53.028434076441826, "lon": 50.303395010864335, "alt_km": 781.3971741355499, "timestamp": "2025-12-06T20:37:55.716239+00:00", "meta": {"OBJECT_NAME": "CBERS 4", "OBJECT_ID": "2014-079A", "EPOCH": "2025-12-06T14:11:28.548096", "MEAN_MOTION": 14.35514292, "ECCENTRICITY": 0.00015118, "INCLINATION": 98.3319, "RA_OF_ASC_NODE": 38.8184, "ARG_OF_PERICENTER": 121.2201, "MEAN_ANOMALY": 238.9133, "EPHEMERIS_TYPE": 0, "CLASSIFICATION_TYPE": "U", "NORAD_CAT_ID": 40336, "ELEMENT_SET_NO": 999, "REV_AT_EPOCH": 57632, "BSTAR": 0.00012310707, "MEAN_MOTION_DOT": 3.12e-06, "MEAN_MOTION_DDOT": 0}, "tle": {"line1": "1 40336U 14079A   25340.59130264  .00000312  00000+0  12311-3 0  9997", "line2": "2 40336  98.3319  38.8184 0001511 121.2201 238.9133 14.35514292576328"}}, "geometry": {"type": "Point", "coordinates": [50.303395010864335, -53.028434076441826]}}, {"type": "Feature", "properties": {"norad_id": 40362, "name": "YAOGAN-26", "group": "resource", "lat": -50.00068916227961, "lon": 153.24532937247935, "alt_km": 460.7770548543658, "timestamp": "2025-12-06T20:37:55.716263+00:00", "meta": {"OBJECT_NAME": "YAOGAN-26", "OBJECT_ID": "2014-088A", "EPOCH": "2025-12-06T14:57:09.193248", "MEAN_MOTION": 15.38980663, "ECCENTRICITY": 0.00069419, "INCLINATION": 97.064, "RA_OF_ASC_NODE": 341.516, "ARG_OF_PERICENTER": 46.9873, "MEAN_ANOMALY": 313.1954, "EPHEMERIS_TYPE": 0, "CLASSIFICATION_TYPE": "U", "NORAD_CAT_ID": 40362, "ELEMENT_SET_NO": 999, "REV_AT_EPOCH": 60800, "BSTAR": 0.0007561241, "MEAN_MOTION_DOT": 0.00029196, "MEAN_MOTION_DDOT": 0}, "tle": {"line1": "1 40362U 14088A   25340.62302307  .00029196  00000+0  75612-3 0  9993", "line2": "2 40362  97.0640 341.5160 0006941  46.9873 313.1954 15.38980663608009"}}, "geometry": {"type": "Point", "coordinates": [153.24532937247935, -50.00068916227961]}}, {"type": "Feature", "properties": {"norad_id": 40376, "name": "SMAP", "group": "resource", "lat": -76.39271499926075, "lon": 21.859603336244582, "alt_km": 690.5838653879828, "timestamp": "2025-12-06T20:37:55.716276+00:00", "meta": {"OBJECT_NAME": "SMAP", "OBJECT_ID": "2015-003A", "EPOCH": "2025-12-06T14:25:43.390560", "MEAN_MOTION": 14.63333147, "ECCENTRICITY": 0.00012101, "INCLINATION": 98.129, "RA_OF_ASC_NODE": 345.4136, "ARG_OF_PERICENTER": 87.666, "MEAN_ANOMALY": 272.468, "EPHEMERIS_TYPE": 0, "CLASSIFICATION_TYPE": "U", "NORAD_CAT_ID": 40376, "ELEMENT_SET_NO": 999, "REV_AT_EPOCH": 57945, "BSTAR": 0.00022215271, "MEAN_MOTION_DOT": 1.1e-05, "MEAN_MOTION_DDOT": 0}, "tle": {"line1": "1 40376U 15003A   25340.60119665  .00001100  00000+0  22215-3 0  9993", "line2": "2 40376  98.1290 345.4136 0001210  87.6660 272.4680 14.63333147579458"}}, "geometry": {"type": "Point", "coordinates": [21.859603336244582, -76.39271499926075]}}, {"type": "Feature", "properties": {"norad_id": 40536, "name": "KOMPSAT-3A", "group": "resource", "lat": 70.9051144492721, "lon": -68.05490845410873, "alt_km": 427.4064079438658, "timestamp": "2025-12-06T20:37:55.716287+00:00", "meta": {"OBJECT_NAME": "KOMPSAT-3A", "OBJECT_ID": "2015-014A", "EPOCH": "2025-12-06T14:05:46.138848", "MEAN_MOTION": 15.43617203, "ECCENTRICITY": 0.00042333, "INCLINATION": 97.6784, "RA_OF_ASC_NODE": 314.5956, "ARG_OF_PERICENTER": 139.9065, "MEAN_ANOMALY": 220.2495, "EPHEMERIS_TYPE": 0, "CLASSIFICATION_TYPE": "U", "NORAD_CAT_ID": 40536, "ELEMENT_SET_NO": 999, "REV_AT_EPOCH": 59200, "BSTAR": 0.00066692966, "MEAN_MOTION_DOT": 0.0003, "MEAN_MOTION_DDOT": 0}, "tle": {"line1": "1 40536U 15014A   25340.58733957  .00030000  00000+0  66693-3 0  9995", "line2": "2 40536  97.6784 314.5956 0004233 139.9065 220.2495 15.43617203592001"}}, "geometry": {"type": "Point", "coordinates": [-68.05490845410873, 70.9051144492721]}}]}